{
  "type": "FeatureCollection",
  "features": [
    {
      "type": "Feature",
      "geometry": { "type": "Point", "coordinates": [-119.6774827, 37.7157987] },
      "properties": {
        "name": "Tunnel View",
        "day": "Sun Aug 2",
        "time": "3:00 PM",
        "elevation_ft": 4400,
        "type": "Viewpoint",
        "note": "First look at the Valley, right after the Wawona Tunnel on Hwy 41. Parking both sides of the road.",
        "marker-color": "#B4552A",
        "marker-symbol": "camera"
      }
    },
    {
      "type": "Feature",
      "geometry": { "type": "Point", "coordinates": [-119.5748224, 37.7384615] },
      "properties": {
        "name": "Curry Village",
        "day": "Sun Aug 2",
        "time": "3:30 PM",
        "elevation_ft": 4000,
        "type": "Basecamp",
        "note": "Check-in 4:00 PM, check-out 11:00 AM. Park once and do not move the car. Front desk 209-372-8333.",
        "marker-color": "#4A3728",
        "marker-symbol": "lodging"
      }
    },
    {
      "type": "Feature",
      "geometry": { "type": "Point", "coordinates": [-119.5583, 37.7326] },
      "properties": {
        "name": "Happy Isles Trailhead",
        "day": "Mon Aug 3",
        "time": "6:00 AM",
        "elevation_ft": 4000,
        "type": "Trailhead",
        "note": "Shuttle stop #16. Start of the John Muir Trail and Mist Trail to Vernal Fall. Mist Trail section closed Mon-Thu 7:00 AM to 3:30 PM.",
        "marker-color": "#2E4237",
        "marker-symbol": "park"
      }
    },
    {
      "type": "Feature",
      "geometry": { "type": "Point", "coordinates": [-119.5433, 37.7273] },
      "properties": {
        "name": "Top of Vernal Fall",
        "day": "Mon Aug 3",
        "time": "8:00 AM",
        "elevation_ft": 5000,
        "type": "Destination",
        "note": "Reachable via Mist Trail (2.4 mi RT) or John Muir Trail and Clark Point cutoff (5.4 mi RT). Vault toilets nearby. Do not cross railings.",
        "marker-color": "#4C7A78",
        "marker-symbol": "water"
      }
    },
    {
      "type": "Feature",
      "geometry": { "type": "Point", "coordinates": [-119.5993836, 37.7364018] },
      "properties": {
        "name": "Swinging Bridge Picnic Area",
        "day": "Mon Aug 3",
        "time": "1:00 PM",
        "elevation_ft": 3950,
        "type": "River access",
        "note": "Shade, picnic tables, grills, and the easiest Merced River swimming in the Valley. Where you ride out the afternoon heat.",
        "marker-color": "#4C7A78",
        "marker-symbol": "swimming"
      }
    },
    {
      "type": "Feature",
      "geometry": { "type": "Point", "coordinates": [-119.5734999, 37.7281509] },
      "properties": {
        "name": "Glacier Point",
        "day": "Tue Aug 4",
        "time": "8:30 AM",
        "elevation_ft": 7214,
        "type": "Viewpoint",
        "note": "60 mile round trip from Curry Village. Lot fills by mid-morning. NO DRINKING WATER, bring your own. Vault toilets only.",
        "marker-color": "#B4552A",
        "marker-symbol": "camera"
      }
    },
    {
      "type": "Feature",
      "geometry": { "type": "Point", "coordinates": [-119.5863257, 37.7126007] },
      "properties": {
        "name": "Sentinel Dome and Taft Point Trailhead",
        "day": "Tue Aug 4",
        "time": "11:00 AM",
        "elevation_ft": 7700,
        "type": "Trailhead",
        "note": "One trailhead, two easy hikes. Sentinel Dome 2.2 mi RT for a 360 summit. Taft Point 2.2 mi RT to unrailed granite fissures.",
        "marker-color": "#2E4237",
        "marker-symbol": "park"
      }
    },
    {
      "type": "Feature",
      "geometry": { "type": "Point", "coordinates": [-119.5494208, 37.7477377] },
      "properties": {
        "name": "Mirror Lake",
        "day": "Wed Aug 5",
        "time": "7:30 AM",
        "elevation_ft": 4100,
        "type": "Easy hike",
        "note": "2 mi RT paved, mostly shaded along Tenaya Creek. Shallow pools by August. Best straight-up view of Half Dome in the park.",
        "marker-color": "#4C7A78",
        "marker-symbol": "water"
      }
    },
    {
      "type": "Feature",
      "geometry": { "type": "Point", "coordinates": [-119.587361, 37.7485922] },
      "properties": {
        "name": "Yosemite Valley Welcome Center",
        "day": "Wed Aug 5",
        "time": "10:00 AM",
        "elevation_ft": 4000,
        "type": "Services",
        "note": "Open 9:00 AM to 5:00 PM. Confirm Mist Trail closure status here and pick up the current Yosemite Guide for ranger program times.",
        "marker-color": "#4A3728",
        "marker-symbol": "information"
      }
    },
    {
      "type": "Feature",
      "geometry": { "type": "Point", "coordinates": [-119.6463888, 37.716669] },
      "properties": {
        "name": "Bridalveil Fall",
        "day": "Wed Aug 5",
        "time": "5:00 PM",
        "elevation_ft": 4000,
        "type": "Easy hike",
        "note": "0.5 mi RT on a rebuilt paved path. Still flowing in August, unlike Yosemite Falls.",
        "marker-color": "#4C7A78",
        "marker-symbol": "water"
      }
    },
    {
      "type": "Feature",
      "geometry": { "type": "Point", "coordinates": [-119.6286207, 37.5433646] },
      "properties": {
        "name": "Wawona Swinging Bridge",
        "day": "Thu Aug 6",
        "time": "12:15 PM",
        "elevation_ft": 4000,
        "type": "River access",
        "note": "Half mile flat walk from the lot to a swimming hole on the South Fork Merced. Bring flip flops. Vault toilet at the parking area.",
        "marker-color": "#4C7A78",
        "marker-symbol": "swimming"
      }
    },
    {
      "type": "Feature",
      "geometry": { "type": "Point", "coordinates": [-119.6300274, 37.5066944] },
      "properties": {
        "name": "Mariposa Grove Welcome Plaza",
        "day": "Thu Aug 6",
        "time": "1:30 PM",
        "elevation_ft": 5100,
        "type": "Trailhead",
        "note": "Park here and ride the free shuttle. Grizzly Giant Loop is 2 mi and 300 ft, shaded. Only giant sequoias on this trip.",
        "marker-color": "#2E4237",
        "marker-symbol": "park"
      }
    },
    {
      "type": "Feature",
      "geometry": { "type": "Point", "coordinates": [-119.6494, 37.5108] },
      "properties": {
        "name": "South Entrance Station",
        "day": "Sun Aug 2 and Thu Aug 6",
        "time": "1:45 PM inbound",
        "elevation_ft": 5120,
        "type": "Park gate",
        "note": "$35 per vehicle, valid 7 days. Card only, no cash. Pre-buy on Recreation.gov. Expect 30 to 90 minute waits on summer mornings.",
        "marker-color": "#8C1D18",
        "marker-symbol": "toll-booth"
      }
    },
    {
      "type": "Feature",
      "geometry": { "type": "Point", "coordinates": [-119.6482, 37.3277] },
      "properties": {
        "name": "Oakhurst, CA",
        "day": "Sun Aug 2 and Thu Aug 6",
        "time": "1:15 PM inbound",
        "elevation_ft": 2300,
        "type": "Last gas",
        "note": "LAST AFFORDABLE FUEL before the park. There is no gas station in Yosemite Valley. Fill up here in both directions.",
        "marker-color": "#8C1D18",
        "marker-symbol": "fuel"
      }
    },
    {
      "type": "Feature",
      "geometry": { "type": "Point", "coordinates": [-117.1897, 34.2483] },
      "properties": {
        "name": "Lake Arrowhead, CA",
        "day": "Start and finish",
        "time": "6:30 AM depart",
        "elevation_ft": 5100,
        "type": "Home",
        "note": "About 350 miles each way. Route: CA-18 to I-15 N to US-395 N to CA-58 W to CA-99 N to CA-41 N.",
        "marker-color": "#4A3728",
        "marker-symbol": "home"
      }
    }
  ]
}
